$$SOE
2460154.500000000, A.D. 2023-Jul-29 00:00:00.0000, 4.302248826720867E+08, 2.279045637357209E+08, 1.783392271842213E+08,
2460161.500000000, A.D. 2023-Aug-05 00:00:00.0000, 4.257294735495517E+08, 2.339293873369449E+08, 1.754172284162248E+08,
2460168.500000000, A.D. 2023-Aug-12 00:00:00.0000, 4.210842523727694E+08, 2.398719623979676E+08, 1.724331523483765E+08,
2460175.500000000, A.D. 2023-Aug-19 00:00:00.0000, 4.162890399397205E+08, 2.457291606536415E+08, 1.693873081965595E+08,
2460182.500000000, A.D. 2023-Aug-26 00:00:00.0000, 4.113436663064966E+08, 2.514977825949565E+08, 1.662800188005417E+08,
2460189.500000000, A.D. 2023-Sep-02 00:00:00.0000, 4.062479723639323E+08, 2.571745541089550E+08, 1.631116218451877E+08,
2460196.500000000, A.D. 2023-Sep-09 00:00:00.0000, 4.010018115666993E+08, 2.627561228769701E+08, 1.598824711542171E+08,
2460203.500000000, A.D. 2023-Sep-16 00:00:00.0000, 3.956050519959958E+08, 2.682390544673841E+08, 1.565929380430856E+08,
2460210.500000000, A.D. 2023-Sep-23 00:00:00.0000, 3.900575791863709E+08, 2.736198284033369E+08, 1.532434127233687E+08,
2460217.500000000, A.D. 2023-Sep-30 00:00:00.0000, 3.843592993917829E+08, 2.788948353887462E+08, 1.498343058939669E+08,
2460224.500000000, A.D. 2023-Oct-07 00:00:00.0000, 3.785101409514375E+08, 2.840603751429533E+08, 1.463660506976564E+08,
2460231.500000000, A.D. 2023-Oct-14 00:00:00.0000, 3.725100548120846E+08, 2.891126515258378E+08, 1.428391046859456E+08,
2460238.500000000, A.D. 2023-Oct-21 00:00:00.0000, 3.663590174551369E+08, 2.940477665503800E+08, 1.392539516370560E+08,
2460245.500000000, A.D. 2023-Oct-28 00:00:00.0000, 3.600570348243980E+08, 2.988617155367347E+08, 1.356111035525063E+08,
2460252.500000000, A.D. 2023-Nov-04 00:00:00.0000, 3.536041460265917E+08, 3.035503826325244E+08, 1.319111028957063E+08,
2460259.500000000, A.D. 2023-Nov-11 00:00:00.0000, 3.470004270075970E+08, 3.081095360949495E+08, 1.281545250203824E+08,
2460266.500000000, A.D. 2023-Nov-18 00:00:00.0000, 3.402459944518082E+08, 3.125348232659369E+08, 1.243419807774576E+08,
2460273.500000000, A.D. 2023-Nov-25 00:00:00.0000, 3.333410100076758E+08, 3.168217652588515E+08, 1.204741193104614E+08,
2460280.500000000, A.D. 2023-Dec-02 00:00:00.0000, 3.262856849003882E+08, 3.209657513424503E+08, 1.165516310520685E+08,
2460287.500000000, A.D. 2023-Dec-09 00:00:00.0000, 3.190802850453665E+08, 3.249620329613521E+08, 1.125752509274285E+08,
2460294.500000000, A.D. 2023-Dec-16 00:00:00.0000, 3.117251369897736E+08, 3.288057174053191E+08, 1.085457617582910E+08,
2460301.500000000, A.D. 2023-Dec-23 00:00:00.0000, 3.042206350746248E+08, 3.324917618156887E+08, 1.044639979130935E+08,
2460308.500000000, A.D. 2023-Dec-30 00:00:00.0000, 2.965672485246693E+08, 3.360149685792949E+08, 1.003308494334762E+08,
2460315.500000000, A.D. 2024-Jan-06 00:00:00.0000, 2.887655267431590E+08, 3.393699797533073E+08, 9.614726663054055E+07,
2460322.500000000, A.D. 2024-Jan-13 00:00:00.0000, 2.808161060412498E+08, 3.425512687237085E+08, 9.191426473949715E+07,
2460329.500000000, A.D. 2024-Jan-20 00:00:00.0000, 2.727197190893785E+08, 3.455531321925880E+08, 8.763292880118501E+07,
2460336.500000000, A.D. 2024-Jan-27 00:00:00.0000, 2.644772051288097E+08, 3.483696831595052E+08, 8.330441903978540E+07,
2460343.500000000, A.D. 2024-Feb-03 00:00:00.0000, 2.560895205875730E+08, 3.509948439670597E+08, 7.892997673135363E+07,
2460350.500000000, A.D. 2024-Feb-10 00:00:00.0000, 2.475577504579042E+08, 3.534223391442518E+08, 7.451093054966271E+07,
2460357.500000000, A.D. 2024-Feb-17 00:00:00.0000, 2.388831206609477E+08, 3.556456880867870E+08, 7.004870341573511E+07,
2460364.500000000, A.D. 2024-Feb-24 00:00:00.0000, 2.300670115293649E+08, 3.576581976280646E+08, 6.554481989020433E+07,
2460371.500000000, A.D. 2024-Mar-02 00:00:00.0000, 2.211109725400243E+08, 3.594529545164940E+08, 6.100091414725955E+07,
2460378.500000000, A.D. 2024-Mar-09 00:00:00.0000, 2.120167385470724E+08, 3.610228177955397E+08, 5.641873855934592E+07,
2460385.500000000, A.D. 2024-Mar-16 00:00:00.0000, 2.027862480317724E+08, 3.623604113564590E+08, 5.180017292253263E+07,
2460392.500000000, A.D. 2024-Mar-23 00:00:00.0000, 1.934216633975462E+08, 3.634581178602695E+08, 4.714723447529952E+07,
2460399.500000000, A.D. 2024-Mar-30 00:00:00.0000, 1.839253912097806E+08, 3.643080741036704E+08, 4.246208896839316E+07,
2460406.500000000, A.D. 2024-Apr-06 00:00:00.0000, 1.743001027833023E+08, 3.649021645850009E+08, 3.774706254432440E+07,
2460413.500000000, A.D. 2024-Apr-13 00:00:00.0000, 1.645487588300438E+08, 3.652320142603413E+08, 3.300465422951658E+07,
2460420.500000000, A.D. 2024-Apr-20 00:00:00.0000, 1.546746373883984E+08, 3.652889833440912E+08, 2.823754940547514E+07,
2460427.500000000, A.D. 2024-Apr-27 00:00:00.0000, 1.446813636969548E+08, 3.650641638005856E+08, 2.344863441255300E+07,
2460434.500000000, A.D. 2024-May-04 00:00:00.0000, 1.345729422880792E+08, 3.645483770707732E+08, 1.864101228076334E+07,
2460441.500000000, A.D. 2024-May-11 00:00:00.0000, 1.243537917346213E+08, 3.637321732240824E+08, 1.381801961523761E+07,
2460448.500000000, A.D. 2024-May-18 00:00:00.0000, 1.140287823315307E+08, 3.626058318994094E+08, 8.983244683890983E+06,
2460455.500000000, A.D. 2024-May-25 00:00:00.0000, 1.036032769386209E+08, 3.611593654275212E+08, 4.140546750560194E+06,
2460462.500000000, A.D. 2024-Jun-01 00:00:00.0000, 9.308317524317098E+07, 3.593825245406643E+08, -7.059233210929483E+05,
2460469.500000000, A.D. 2024-Jun-08 00:00:00.0000, 8.247496187792541E+07, 3.572648071803015E+08, -5.551701196517467E+06,
2460476.500000000, A.D. 2024-Jun-15 00:00:00.0000, 7.178575896355464E+07, 3.547954715618122E+08, -1.039198592240217E+07,
2460483.500000000, A.D. 2024-Jun-22 00:00:00.0000, 6.102338220956955E+07, 3.519635553758683E+08, -1.522161533684954E+07,
2460490.500000000, A.D. 2024-Jun-29 00:00:00.0000, 5.019639854508390E+07, 3.487579001077502E+08, -2.003504004610111E+07,
2460497.500000000, A.D. 2024-Jul-06 00:00:00.0000, 3.931418795061298E+07, 3.451671789256318E+08, -2.482629650719535E+07,
2460504.500000000, A.D. 2024-Jul-13 00:00:00.0000, 2.838701139593770E+07, 3.411799320215271E+08, -2.958897931638364E+07,
2460511.500000000, A.D. 2024-Jul-20 00:00:00.0000, 1.742608275847368E+07, 3.367846117320440E+08, -3.431621264881662E+07,
2460518.500000000, A.D. 2024-Jul-27 00:00:00.0000, 6.443643786384033E+06, 3.319696377796469E+08, -3.900062117147975E+07,
2460525.500000000, A.D. 2024-Aug-03 00:00:00.0000, -4.546958077417453E+06, 3.267234636889330E+08, -4.363430088896848E+07,
2460532.500000000, A.D. 2024-Aug-10 00:00:00.0000, -1.553118952102572E+07, 3.210346559267001E+08, -4.820879046220614E+07,
2460539.500000000, A.D. 2024-Aug-17 00:00:00.0000, -2.649324973836811E+07, 3.148919874493227E+08, -5.271504367049250E+07,
2460546.500000000, A.D. 2024-Aug-24 00:00:00.0000, -3.741598859961401E+07, 3.082845473781874E+08, -5.714340385698048E+07,
2460553.500000000, A.D. 2024-Aug-31 00:00:00.0000, -4.828082616770779E+07, 3.012018685225089E+08, -6.148358140235347E+07,
2460560.500000000, A.D. 2024-Sep-07 00:00:00.0000, -5.906767532292460E+07, 2.936340746313828E+08, -6.572463549770694E+07,
2460567.500000000, A.D. 2024-Sep-14 00:00:00.0000, -6.975487007057604E+07, 2.855720500156085E+08, -6.985496163373333E+07,
2460574.500000000, A.D. 2024-Sep-21 00:00:00.0000, -8.031910481709604E+07, 2.770076333704911E+08, -7.386228633987764E+07,
2460581.500000000, A.D. 2024-Sep-28 00:00:00.0000, -9.073538900612442E+07, 2.679338335973949E+08, -7.773367140908253E+07,
2460588.500000000, A.D. 2024-Oct-05 00:00:00.0000, -1.009770180579283E+08, 2.583450680700094E+08, -8.145553021719441E+07,
2460595.500000000, A.D. 2024-Oct-12 00:00:00.0000, -1.110155662954498E+08, 2.482374259894899E+08, -8.501365838234547E+07,
2460602.500000000, A.D. 2024-Oct-19 00:00:00.0000, -1.208209095787530E+08, 2.376089551527753E+08, -8.839328133234581E+07,
2460609.500000000, A.D. 2024-Oct-26 00:00:00.0000, -1.303612842085105E+08, 2.264599685542468E+08, -9.157912163843562E+07,
2460616.500000000, A.D. 2024-Nov-02 00:00:00.0000, -1.396033887385422E+08, 2.147933662206359E+08, -9.455548891084699E+07,
2460623.500000000, A.D. 2024-Nov-09 00:00:00.0000, -1.485125355667743E+08, 2.026149658760512E+08, -9.730639480657814E+07,
2460630.500000000, A.D. 2024-Nov-16 00:00:00.0000, -1.570528588938273E+08, 1.899338337870432E+08, -9.981569524372281E+07,
2460637.500000000, A.D. 2024-Nov-23 00:00:00.0000, -1.651875847181932E+08, 1.767626047021567E+08, -1.020672611866143E+08,
2460644.500000000, A.D. 2024-Nov-30 00:00:00.0000, -1.728793668044122E+08, 1.631177774168678E+08, -1.040451783191302E+08,
2460651.500000000, A.D. 2024-Dec-07 00:00:00.0000, -1.800906900099044E+08, 1.490199707783070E+08, -1.057339744996251E+08,
2460658.500000000, A.D. 2024-Dec-14 00:00:00.0000, -1.867843403147107E+08, 1.344941240568408E+08, -1.071188719905563E+08,
2460665.500000000, A.D. 2024-Dec-21 00:00:00.0000, -1.929239386068986E+08, 1.195696222739996E+08, -1.081860595120809E+08,
2460672.500000000, A.D. 2024-Dec-28 00:00:00.0000, -1.984745264258778E+08, 1.042803256326167E+08, -1.089229775443690E+08,
2460679.500000000, A.D. 2025-Jan-04 00:00:00.0000, -2.034031863390277E+08, 8.866448925692353E+07, -1.093186077617310E+08,
2460686.500000000, A.D. 2025-Jan-11 00:00:00.0000, -2.076796792409893E+08, 7.276456211378910E+07, -1.093637552472491E+08,
2460693.500000000, A.D. 2025-Jan-18 00:00:00.0000, -2.112770757320093E+08, 5.662685652430405E+07, -1.090513110569319E+08,
2460700.500000000, A.D. 2025-Jan-25 00:00:00.0000, -2.141723544973543E+08, 4.030108677005023E+07, -1.083764821314694E+08,
2460707.500000000, A.D. 2025-Feb-01 00:00:00.0000, -2.163469393199083E+08, 2.383978350670879E+07, -1.073369758433480E+08,
2460714.500000000, A.D. 2025-Feb-08 00:00:00.0000, -2.177871472961016E+08, 7.297598982388921E+06, -1.059331278843411E+08,
2460721.500000000, A.D. 2025-Feb-15 00:00:00.0000, -2.184845240126066E+08, -9.269474104752656E+06, -1.041679647216173E+08,
$$EOE